NORAD_CAT_ID,OBJECT_NAME,OBJECT_TYPE,EPOCH,MEAN_MOTION,ECCENTRICITY,INCLINATION,RA_OF_ASC_NODE,ARG_OF_PERICENTER,MEAN_ANOMALY,BSTAR,MEAN_MOTION_DOT,MEAN_MOTION_DDOT,TLE_LINE0,TLE_LINE1,TLE_LINE2,SEMIMAJOR_AXIS,PERIOD,APOGEE,PERIGEE,DECAYED
53015.0,STARLINK-4262,PAYLOAD,2023-11-26 22:08:54,15.08814608,0.0001498,53.2185,227.044,107.7816,252.334,-0.0003426,-5.732e-05,0.0,0 STARLINK-4262,1 53015U 22076AF  23330.92284779 -.00005732  00000-0 -34260-3 0  9997,2 53015  53.2185 227.0440 0001498 107.7816 252.3340 15.08814608 77117,6917.958,95.439,540.859,538.787,0.0
53015.0,STARLINK-4262,PAYLOAD,2023-11-27 02:55:03,15.08829687,0.0001362,53.218,226.1528,112.0852,248.0285,0.00018703,2.689e-05,0.0,0 STARLINK-4262,1 53015U 22076AF  23331.12157064  .00002689  00000-0  18703-3 0  9996,2 53015  53.2180 226.1528 0001362 112.0852 248.0285 15.08829687 77616,6917.912,95.438,540.719,538.835,0.0
53015.0,STARLINK-4262,PAYLOAD,2023-11-27 21:59:41,15.08837372,0.0001491,53.2164,222.5876,88.014,272.1023,0.0011275,0.000177,0.0,0 STARLINK-4262,1 53015U 22076AF  23331.91645520  .00017700  00000-0  11275-2 0  9998,2 53015  53.2164 222.5876 0001491  88.0140 272.1023 15.08837372 77268,6917.888,95.438,540.785,538.722,0.0
53015.0,STARLINK-4262,PAYLOAD,2023-11-28 02:45:50,15.0885506,0.0001653,53.2167,221.6933,108.5386,251.5786,0.0014947,0.0002359,0.0,0 STARLINK-4262,1 53015U 22076AF  23332.11517122  .00023590  00000-0  14947-2 0  9990,2 53015  53.2167 221.6933 0001653 108.5386 251.5786 15.08855060 77761,6917.834,95.437,540.843,538.556,0.0
53015.0,STARLINK-4262,PAYLOAD,2023-11-28 20:15:04,15.08851378,0.0002192,53.2165,218.4157,132.2516,227.8662,0.00024777,3.658e-05,0.0,0 STARLINK-4262,1 53015U 22076AF  23332.84380677  .00003658  00000-0  24777-3 0  9999,2 53015  53.2165 218.4157 0002192 132.2516 227.8662 15.08851378 77878,6917.846,95.437,541.227,538.194,0.0
53015.0,STARLINK-4262,PAYLOAD,2023-11-28 21:50:28,15.08851365,0.0002132,53.2167,218.1184,135.7553,224.361,0.00035176,5.316e-05,0.0,0 STARLINK-4262,1 53015U 22076AF  23332.91004671  .00005316  00000-0  35176-3 0  9992,2 53015  53.2167 218.1184 0002132 135.7553 224.3610 15.08851365 77411,6917.846,95.437,541.186,538.236,0.0
53015.0,STARLINK-4262,PAYLOAD,2023-11-29 02:36:37,15.08843431,0.0001956,53.2165,217.2287,123.8914,236.2265,0.00021612,3.153e-05,0.0,0 STARLINK-4262,1 53015U 22076AF  23333.10876777  .00003153  00000-0  21612-3 0  9995,2 53015  53.2165 217.2287 0001956 123.8914 236.2265 15.08843431 77913,6917.87,95.437,541.088,538.382,0.0
53015.0,STARLINK-4262,PAYLOAD,2023-11-30 02:27:23,15.08862891,0.0001715,53.2158,212.7702,108.3406,251.7773,0.00042711,6.52e-05,0.0,0 STARLINK-4262,1 53015U 22076AF  23334.10235624  .00006520  00000-0  42711-3 0  9990,2 53015  53.2158 212.7702 0001715 108.3406 251.7773 15.08862891 78068,6917.81,95.436,540.862,538.489,0.0
53015.0,STARLINK-4262,PAYLOAD,2023-12-01 02:18:11,15.08835284,0.0001374,53.2153,208.3131,116.7908,243.3225,-7.576e-05,-1.493e-05,0.0,0 STARLINK-4262,1 53015U 22076AF  23335.09596654 -.00001493  00000-0 -75760-4 0  9999,2 53015  53.2153 208.3131 0001374 116.7908 243.3225 15.08835284 78213,6917.895,95.438,540.71,538.809,0.0
53015.0,STARLINK-4262,PAYLOAD,2023-12-01 21:22:49,15.08841926,0.000179,53.2161,204.7466,87.7473,272.3724,0.00031388,4.711e-05,0.0,0 STARLINK-4262,1 53015U 22076AF  23335.89084740  .00004711  00000-0  31388-3 0  9996,2 53015  53.2161 204.7466 0001790  87.7473 272.3724 15.08841926 77865,6917.875,95.437,540.978,538.501,0.0
53015.0,STARLINK-4262,PAYLOAD,2023-12-02 00:33:35,15.08849153,0.0001348,53.2152,204.1507,92.7501,267.3645,0.0010069,0.00015777,0.0,0 STARLINK-4262,1 53015U 22076AF  23336.02332778  .00015777  00000-0  10069-2 0  9995,2 53015  53.2152 204.1507 0001348  92.7501 267.3645 15.08849153 78353,6917.852,95.437,540.65,538.785,0.0
53015.0,STARLINK-4262,PAYLOAD,2023-12-02 19:38:13,15.08844094,0.0001163,53.215,200.5794,111.8955,248.2161,0.00020223,2.932e-05,0.0,0 STARLINK-4262,1 53015U 22076AF  23336.81820767  .00002932  00000-0  20223-3 0  9995,2 53015  53.2150 200.5794 0001163 111.8955 248.2161 15.08844094 78473,6917.868,95.437,540.537,538.928,0.0
53015.0,STARLINK-4262,PAYLOAD,2023-12-02 22:48:59,15.08845667,0.0001171,53.2147,199.991,73.3864,286.7257,0.00021613,3.154e-05,0.0,0 STARLINK-4262,1 53015U 22076AF  23336.95068904  .00003154  00000-0  21613-3 0  9998,2 53015  53.2147 199.9910 0001171  73.3864 286.7257 15.08845667 78021,6917.863,95.437,540.538,538.918,0.0
53015.0,STARLINK-4262,PAYLOAD,2023-12-03 14:42:51,15.08815039,7.88e-05,53.2166,197.0123,89.8713,270.2369,8.7525e-05,1.105e-05,0.0,0 STARLINK-4262,1 53015U 22076AF  23337.61309847  .00001105  00000-0  87525-4 0  9995,2 53015  53.2166 197.0123 0000788  89.8713 270.2369 15.08815039 78128,6917.957,95.439,540.367,539.277,0.0
53015.0,STARLINK-4262,PAYLOAD,2023-12-03 19:29:01,15.08818133,0.0001764,53.216,196.118,118.6064,241.5106,0.0005717,8.817e-05,0.0,0 STARLINK-4262,1 53015U 22076AF  23337.81182111  .00008817  00000-0  57170-3 0  9999,2 53015  53.2160 196.1180 0001764 118.6064 241.5106 15.08818133 78623,6917.947,95.439,541.033,538.592,0.0
53015.0,STARLINK-4262,PAYLOAD,2023-12-04 00:15:11,15.08815687,0.0001325,53.216,195.229,97.634,262.4802,0.0005003,7.678e-05,0.0,0 STARLINK-4262,1 53015U 22076AF  23338.01054657  .00007678  00000-0  50030-3 0  9997,2 53015  53.2160 195.2290 0001325  97.6340 262.4802 15.08815687 78650,6917.955,95.439,540.736,538.903,0.0
53015.0,STARLINK-4262,PAYLOAD,2023-12-05 00:05:58,15.08836416,0.0001398,53.2157,190.769,73.4745,286.6401,0.0005153,7.922e-05,0.0,0 STARLINK-4262,1 53015U 22076AF  23339.00415324  .00007922  00000-0  51530-3 0  9997,2 53015  53.2157 190.7690 0001398  73.4745 286.6401 15.08836416 78332,6917.891,95.438,540.723,538.789,0.0
53015.0,STARLINK-4262,PAYLOAD,2023-12-05 23:56:44,15.08860246,0.0001217,53.2159,186.3081,84.4519,275.6612,0.00058427,9.028e-05,0.0,0 STARLINK-4262,1 53015U 22076AF  23339.99774232  .00009028  00000-0  58427-3 0  9992,2 53015  53.2159 186.3081 0001217  84.4519 275.6612 15.08860246 78958,6917.819,95.436,540.525,538.842,0.0
53015.0,STARLINK-4262,PAYLOAD,2023-12-07 14:05:59,15.08844289,0.0001341,53.2158,179.1713,76.9186,283.1956,1.5188e-05,-4.6e-07,0.0,0 STARLINK-4262,1 53015U 22076AF  23341.58749706 -.00000046  00000-0  15188-4 0  9998,2 53015  53.2158 179.1713 0001341  76.9186 283.1956 15.08844289 78722,6917.867,95.437,540.66,538.805,0.0
53015.0,STARLINK-4262,PAYLOAD,2023-12-08 12:21:23,15.08838648,0.0001206,53.2166,175.0086,103.1286,256.9841,2.4236e-05,9.8e-07,0.0,0 STARLINK-4262,1 53015U 22076AF  23342.51485798  .00000098  00000-0  24236-4 0  9990,2 53015  53.2166 175.0086 0001206 103.1286 256.9841 15.08838648 78861,6917.885,95.438,540.584,538.915,0.0
53015.0,STARLINK-4262,PAYLOAD,2023-12-09 21:44:29,15.08838865,0.0001974,53.2094,168.7625,84.1966,275.9251,8.1563e-05,1.01e-05,0.0,0 STARLINK-4262,1 53015U 22076AF  23343.90590089  .00001010  00000-0  81563-4 0  9995,2 53015  53.2094 168.7625 0001974  84.1966 275.9251 15.08838865 79075,6917.884,95.438,541.114,538.383,0.0
53015.0,STARLINK-4262,PAYLOAD,2023-12-10 12:02:57,15.08841002,0.000171,53.2109,166.0868,82.9346,277.1841,8.0398e-05,9.92e-06,0.0,0 STARLINK-4262,1 53015U 22076AF  23344.50206010  .00000992  00000-0  80398-4 0  9993,2 53015  53.2109 166.0868 0001710  82.9346 277.1841 15.08841002 79164,6917.877,95.437,540.925,538.559,0.0
53015.0,STARLINK-4262,PAYLOAD,2023-12-10 19:59:53,15.08840598,0.0001514,53.217,164.6023,79.7404,280.3759,5.7498e-05,6.27e-06,0.0,0 STARLINK-4262,1 53015U 22076AF  23344.83326243  .00000627  00000-0  57498-4 0  9990,2 53015  53.2170 164.6023 0001514  79.7404 280.3759 15.08840598 79219,6917.879,95.438,540.791,538.696,0.0
53015.0,STARLINK-4262,PAYLOAD,2023-12-11 18:15:17,15.08842709,0.0001519,53.217,160.4391,78.099,282.0172,0.00010431,1.373e-05,0.0,0 STARLINK-4262,1 53015U 22076AF  23345.76061926  .00001373  00000-0  10431-3 0  9991,2 53015  53.2170 160.4391 0001519  78.0990 282.0172 15.08842709 79829,6917.872,95.437,540.788,538.686,0.0
53015.0,STARLINK-4262,PAYLOAD,2023-12-12 18:06:04,15.08842125,0.0001364,53.2166,155.9773,91.0189,269.0959,6.2355e-05,7.05e-06,0.0,0 STARLINK-4262,1 53015U 22076AF  23346.75421917  .00000705  00000-0  62355-4 0  9992,2 53015  53.2166 155.9773 0001364  91.0189 269.0959 15.08842125 79505,6917.874,95.437,540.682,538.795,0.0
53015.0,STARLINK-4262,PAYLOAD,2023-12-13 14:46:05,15.08839807,0.0001473,53.217,152.1129,108.4817,251.6336,4.0091e-05,3.5e-06,0.0,0 STARLINK-4262,1 53015U 22076AF  23347.61534002  .00000350  00000-0  40091-4 0  9997,2 53015  53.2170 152.1129 0001473 108.4817 251.6336 15.08839807 79639,6917.881,95.438,540.765,538.727,0.0
53015.0,STARLINK-4262,PAYLOAD,2023-12-13 17:56:51,15.08841651,0.0001476,53.2173,151.5176,104.4605,255.6551,4.8313e-05,4.81e-06,0.0,0 STARLINK-4262,1 53015U 22076AF  23347.74781862  .00000481  00000-0  48313-4 0  9999,2 53015  53.2173 151.5176 0001476 104.4605 255.6551 15.08841651 80120,6917.875,95.437,540.761,538.719,0.0
53015.0,STARLINK-4262,PAYLOAD,2023-12-14 14:36:52,15.08839046,0.0001487,53.2176,147.6515,104.3318,255.7839,5.88e-05,6.48e-06,0.0,0 STARLINK-4262,1 53015U 22076AF  23348.60894031  .00000648  00000-0  58800-4 0  9995,2 53015  53.2176 147.6515 0001487 104.3318 255.7839 15.08839046 79783,6917.883,95.438,540.777,538.72,0.0
53015.0,STARLINK-4262,PAYLOAD,2023-12-14 17:47:38,15.08840248,0.0001447,53.2176,147.0569,99.4549,260.6607,6.4561e-05,7.4e-06,0.0,0 STARLINK-4262,1 53015U 22076AF  23348.74141962  .00000740  00000-0  64561-4 0  9992,2 53015  53.2176 147.0569 0001447  99.4549 260.6607 15.08840248 79809,6917.88,95.438,540.746,538.744,0.0
53015.0,STARLINK-4262,PAYLOAD,2023-12-15 08:06:06,15.08839606,0.0001427,53.2177,144.3788,93.2021,266.9134,5.5397e-05,5.94e-06,0.0,0 STARLINK-4262,1 53015U 22076AF  23349.33758071  .00000594  00000-0  55397-4 0  9997,2 53015  53.2177 144.3788 0001427  93.2021 266.9134 15.08839606 80361,6917.882,95.438,540.734,538.759,0.0
